NORAD_CAT_ID,OBJECT_NAME,OBJECT_TYPE,EPOCH,MEAN_MOTION,ECCENTRICITY,INCLINATION,RA_OF_ASC_NODE,ARG_OF_PERICENTER,MEAN_ANOMALY,BSTAR,MEAN_MOTION_DOT,MEAN_MOTION_DDOT,TLE_LINE0,TLE_LINE1,TLE_LINE2,SEMIMAJOR_AXIS,PERIOD,APOGEE,PERIGEE,DECAYED
52473.0,STARLINK-3879,PAYLOAD,2023-04-01 13:22:43,15.08826508,0.000132,53.2149,196.5947,125.4104,234.7012,0.0019431,0.0003076,0.0,0 STARLINK-3879,1 52473U 22049Y   23091.55744992  .00030760  00000-0  19431-2 0  9994,2 52473  53.2149 196.5947 0001320 125.4104 234.7012 15.08826508 50402,6917.922,95.438,540.7,538.873,0.0
52473.0,STARLINK-3879,PAYLOAD,2023-04-01 16:33:30,15.08832918,0.0001313,53.2149,196.0006,120.0356,240.0766,0.0021928,0.00034776,0.0,0 STARLINK-3879,1 52473U 22049Y   23091.68993179  .00034776  00000-0  21928-2 0  9996,2 52473  53.2149 196.0006 0001313 120.0356 240.0766 15.08832918 50267,6917.902,95.438,540.675,538.859,0.0
52473.0,STARLINK-3879,PAYLOAD,2023-04-02 00:30:26,15.08841549,0.0001116,53.2148,194.5174,98.7887,261.3231,0.0019111,0.00030259,0.0,0 STARLINK-3879,1 52473U 22049Y   23092.02113526  .00030259  00000-0  19111-2 0  9998,2 52473  53.2148 194.5174 0001116  98.7887 261.3231 15.08841549 50472,6917.876,95.437,540.513,538.969,0.0
52473.0,STARLINK-3879,PAYLOAD,2023-04-02 13:13:30,15.08856625,0.0001323,53.2145,192.1375,85.5633,274.5511,0.0011191,0.00017575,0.0,0 STARLINK-3879,1 52473U 22049Y   23092.55105229  .00017575  00000-0  11191-2 0  9993,2 52473  53.2145 192.1375 0001323  85.5633 274.5511 15.08856625 50556,6917.83,95.437,540.61,538.779,0.0
52473.0,STARLINK-3879,PAYLOAD,2023-04-02 16:24:16,15.08866977,0.0001313,53.2149,191.542,96.6423,263.4719,0.0013952,0.00022003,0.0,0 STARLINK-3879,1 52473U 22049Y   23092.68352897  .00022003  00000-0  13952-2 0  9991,2 52473  53.2149 191.5420 0001313  96.6423 263.4719 15.08866977 50416,6917.798,95.436,540.571,538.755,0.0
52473.0,STARLINK-3879,PAYLOAD,2023-04-03 11:28:55,15.08838244,0.000114,53.2149,187.9738,88.7989,271.3134,0.00020124,2.916e-05,0.0,0 STARLINK-3879,1 52473U 22049Y   23093.47841526  .00002916  00000-0  20124-3 0  9992,2 52473  53.2149 187.9738 0001140  88.7989 271.3134 15.08838244 50699,6917.886,95.438,540.539,538.962,0.0
52473.0,STARLINK-3879,PAYLOAD,2023-04-03 16:15:04,15.08840973,0.0001183,53.2156,187.0807,102.7898,257.3226,0.00044358,6.779e-05,0.0,0 STARLINK-3879,1 52473U 22049Y   23093.67713556  .00006779  00000-0  44358-3 0  9991,2 52473  53.2156 187.0807 0001183 102.7898 257.3226 15.08840973 50562,6917.877,95.437,540.561,538.924,0.0
52473.0,STARLINK-3879,PAYLOAD,2023-04-04 11:19:41,15.08863407,0.0001232,53.2154,183.5146,76.6325,283.4805,0.001008,0.00015801,0.0,0 STARLINK-3879,1 52473U 22049Y   23094.47201098  .00015801  00000-0  10080-2 0  9993,2 52473  53.2154 183.5146 0001232  76.6325 283.4805 15.08863407 50847,6917.809,95.436,540.526,538.822,0.0
52473.0,STARLINK-3879,PAYLOAD,2023-04-05 04:48:56,15.08852449,0.0001312,53.2155,180.244,71.3833,288.7301,0.00037235,5.645e-05,0.0,0 STARLINK-3879,1 52473U 22049Y   23095.20065015  .00005645  00000-0  37235-3 0  9999,2 52473  53.2155 180.2440 0001312  71.3833 288.7301 15.08852449 50959,6917.842,95.437,540.615,538.8,0.0
52473.0,STARLINK-3879,PAYLOAD,2023-04-05 11:10:28,15.08845693,0.0001153,53.2154,179.054,76.7076,283.4045,0.00020659,3.002e-05,0.0,0 STARLINK-3879,1 52473U 22049Y   23095.46561045  .00003002  00000-0  20659-3 0  9998,2 52473  53.2154 179.0540 0001153  76.7076 283.4045 15.08845693 50833,6917.863,95.437,540.526,538.93,0.0
52473.0,STARLINK-3879,PAYLOAD,2023-04-05 22:18:10,15.08839923,0.0001189,53.2144,176.9727,72.1663,287.9459,0.00021291,3.102e-05,0.0,0 STARLINK-3879,1 52473U 22049Y   23095.92929240  .00003102  00000-0  21291-3 0  9998,2 52473  53.2144 176.9727 0001189  72.1663 287.9459 15.08839923 51069,6917.881,95.438,540.568,538.923,0.0
52473.0,STARLINK-3879,PAYLOAD,2023-04-06 11:01:16,15.0883927,0.0001299,53.2147,174.5931,78.1574,281.9564,6.122e-05,6.87e-06,0.0,0 STARLINK-3879,1 52473U 22049Y   23096.45921336  .00000687  00000-0  61220-4 0  9997,2 52473  53.2147 174.5931 0001299  78.1574 281.9564 15.08839270 50988,6917.883,95.438,540.646,538.849,0.0
52473.0,STARLINK-3879,PAYLOAD,2023-04-06 22:08:58,15.08840584,0.0001268,53.215,172.5124,83.3802,276.7335,0.00012453,1.695e-05,0.0,0 STARLINK-3879,1 52473U 22049Y   23096.92289356  .00001695  00000-0  12453-3 0  9991,2 52473  53.2150 172.5124 0001268  83.3802 276.7335 15.08840584 51059,6917.879,95.438,540.621,538.866,0.0
52473.0,STARLINK-3879,PAYLOAD,2023-04-07 04:30:30,15.08840105,0.0001383,53.2148,171.3255,84.471,275.644,0.00016493,2.338e-05,0.0,0 STARLINK-3879,1 52473U 22049Y   23097.18785479  .00002338  00000-0  16493-3 0  9990,2 52473  53.2148 171.3255 0001383  84.4710 275.6440 15.08840105 51252,6917.88,95.438,540.702,538.788,0.0
52473.0,STARLINK-3879,PAYLOAD,2023-04-07 12:27:26,15.08841387,0.0001344,53.2155,169.8374,82.1992,277.9152,0.000173,2.467e-05,0.0,0 STARLINK-3879,1 52473U 22049Y   23097.51905532  .00002467  00000-0  17300-3 0  9992,2 52473  53.2155 169.8374 0001344  82.1992 277.9152 15.08841387 51144,6917.876,95.437,540.671,538.811,0.0
52473.0,STARLINK-3879,PAYLOAD,2023-04-08 12:18:13,15.08847974,0.000146,53.2146,165.3758,82.001,278.1147,0.00019538,2.824e-05,0.0,0 STARLINK-3879,1 52473U 22049Y   23098.51265163  .00002824  00000-0  19538-3 0  9994,2 52473  53.2146 165.3758 0001460  82.0010 278.1147 15.08847974 51459,6917.856,95.437,540.731,538.711,0.0
52473.0,STARLINK-3879,PAYLOAD,2023-04-09 10:33:37,15.08839928,0.0001549,53.2149,161.2124,81.732,278.3848,1.4855e-05,-5.2e-07,0.0,0 STARLINK-3879,1 52473U 22049Y   23099.44001473 -.00000052  00000-0  14855-4 0  9999,2 52473  53.2149 161.2124 0001549  81.7320 278.3848 15.08839928 51597,6917.881,95.438,540.817,538.674,0.0
52473.0,STARLINK-3879,PAYLOAD,2023-04-09 12:09:00,15.08841039,0.0001548,53.2148,160.9146,83.8486,276.2683,2.6616e-05,1.36e-06,0.0,0 STARLINK-3879,1 52473U 22049Y   23099.50625394  .00000136  00000-0  26616-4 0  9990,2 52473  53.2148 160.9146 0001548  83.8486 276.2683 15.08841039 51445,6917.877,95.437,540.813,538.671,0.0
52473.0,STARLINK-3879,PAYLOAD,2023-04-09 21:41:19,15.08835265,0.0001325,53.2156,159.1271,109.7946,250.3189,1.0106e-05,-1.27e-06,0.0,0 STARLINK-3879,1 52473U 22049Y   23099.90369735 -.00000127  00000-0  10106-4 0  9996,2 52473  53.2156 159.1271 0001325 109.7946 250.3189 15.08835265 51500,6917.895,95.438,540.676,538.843,0.0
52473.0,STARLINK-3879,PAYLOAD,2023-04-10 07:13:38,15.0883839,0.0001444,53.2152,157.3442,93.8878,266.228,3.4981e-06,-2.32e-06,0.0,0 STARLINK-3879,1 52473U 22049Y   23100.30113694 -.00000232  00000-0  34981-5 0  9999,2 52473  53.2152 157.3442 0001444  93.8878 266.2280 15.08838390 51561,6917.885,95.438,540.749,538.751,0.0
52473.0,STARLINK-3879,PAYLOAD,2023-04-11 10:15:10,15.088475,0.0001341,53.2144,152.2893,94.7511,265.3634,0.00011402,1.528e-05,0.0,0 STARLINK-3879,1 52473U 22049Y   23101.42720866  .00001528  00000-0  11402-3 0  9997,2 52473  53.2144 152.2893 0001341  94.7511 265.3634 15.08847500 51731,6917.857,95.437,540.65,538.795,0.0
52473.0,STARLINK-3879,PAYLOAD,2023-04-11 19:47:30,15.08842453,0.0001405,53.2146,150.5068,83.8041,276.3111,5.9338e-05,6.57e-06,0.0,0 STARLINK-3879,1 52473U 22049Y   23101.82465353  .00000657  00000-0  59338-4 0  9991,2 52473  53.2146 150.5068 0001405  83.8041 276.3111 15.08842453 51796,6917.873,95.437,540.71,538.766,0.0
52473.0,STARLINK-3879,PAYLOAD,2023-04-12 10:05:57,15.08888781,0.000117,53.2152,147.8308,101.8115,258.3008,-0.00074066,-0.00012072,0.0,0 STARLINK-3879,1 52473U 22049Y   23102.42080292 -.00012072  00000-0 -74066-3 0  9993,2 52473  53.2152 147.8308 0001170 101.8115 258.3008 15.08888781 52049,6917.731,95.434,540.406,538.787,0.0
52473.0,STARLINK-3879,PAYLOAD,2023-04-12 19:38:17,15.08837769,0.0001415,53.2157,146.0465,96.9039,263.2114,7.1662e-06,-1.74e-06,0.0,0 STARLINK-3879,1 52473U 22049Y   23102.81825908 -.00000174  00000-0  71662-5 0  9997,2 52473  53.2157 146.0465 0001415  96.9039 263.2114 15.08837769 52100,6917.887,95.438,540.731,538.773,0.0
52473.0,STARLINK-3879,PAYLOAD,2023-04-13 06:45:58,15.08844081,0.0001169,53.216,143.9647,92.9465,267.1661,8.0494e-05,9.94e-06,0.0,0 STARLINK-3879,1 52473U 22049Y   23103.28193285  .00000994  00000-0  80494-4 0  9996,2 52473  53.2160 143.9647 0001169  92.9465 267.1661 15.08844081 52012,6917.868,95.437,540.542,538.924,0.0
52473.0,STARLINK-3879,PAYLOAD,2023-04-14 09:47:33,15.08833442,0.0001365,53.2152,138.9091,86.6551,273.4598,3.9097e-05,3.34e-06,0.0,0 STARLINK-3879,1 52473U 22049Y   23104.40802101  .00000334  00000-0  39097-4 0  9996,2 52473  53.2152 138.9091 0001365  86.6551 273.4598 15.08833442 52348,6917.9,95.438,540.71,538.821,0.0
52473.0,STARLINK-3879,PAYLOAD,2023-04-14 11:22:56,15.0882854,0.0001399,53.216,138.6149,83.49,276.6252,0.00015834,2.232e-05,0.0,0 STARLINK-3879,1 52473U 22049Y   23104.47426164  .00002232  00000-0  15834-3 0  9995,2 52473  53.2160 138.6149 0001399  83.4900 276.6252 15.08828540 52196,6917.915,95.438,540.748,538.813,0.0
52473.0,STARLINK-3879,PAYLOAD,2023-04-15 09:38:18,15.08852469,0.0001198,53.2147,134.4477,86.554,273.5589,7.157e-05,8.52e-06,0.0,0 STARLINK-3879,1 52473U 22049Y   23105.40160825  .00000852  00000-0  71570-4 0  9994,2 52473  53.2147 134.4477 0001198  86.5540 273.5589 15.08852469 52332,6917.842,95.437,540.536,538.879,0.0
52473.0,STARLINK-3879,PAYLOAD,2023-04-15 19:10:38,15.08838126,0.000158,53.2154,132.6669,70.3448,289.7715,0.00011519,1.546e-05,0.0,0 STARLINK-3879,1 52473U 22049Y   23105.79905666  .00001546  00000-0  11519-3 0  9993,2 52473  53.2154 132.6669 0001580  70.3448 289.7715 15.08838126 52554,6917.886,95.438,540.844,538.658,0.0
52473.0,STARLINK-3879,PAYLOAD,2023-04-16 07:53:44,15.08828278,0.00015,53.2157,130.2858,77.3166,282.7993,3.4578e-05,2.62e-06,0.0,0 STARLINK-3879,1 52473U 22049Y   23106.32898702  .00000262  00000-0  34578-4 0  9990,2 52473  53.2157 130.2858 0001500  77.3166 282.7993 15.08828278 52634,6917.916,95.438,540.819,538.744,0.0
